[{"OBJECT_NAME":"TECHNOSAT","OBJECT_ID":"2017-042E","EPOCH":"2026-03-09T21:27:07.546176","MEAN_MOTION":15.04288119,"ECCENTRICITY":0.00196291,"INCLINATION":97.4156,"RA_OF_ASC_NODE":230.4429,"ARG_OF_PERICENTER":75.0719,"MEAN_ANOMALY":285.2679,"EPHEMERIS_TYPE":0,"CLASSIFICATION_TYPE":"U","NORAD_CAT_ID":42829,"ELEMENT_SET_NO":999,"REV_AT_EPOCH":47177,"BSTAR":0.00032015047,"MEAN_MOTION_DOT":4.417e-5,"MEAN_MOTION_DDOT":0},{"OBJECT_NAME":"STARLINK-34633","OBJECT_ID":"2025-150Q","EPOCH":"2026-03-09T14:23:26.229696","MEAN_MOTION":14.9833498,"ECCENTRICITY":0.0003058,"INCLINATION":70.0019,"RA_OF_ASC_NODE":134.6704,"ARG_OF_PERICENTER":262.1025,"MEAN_ANOMALY":97.9787,"EPHEMERIS_TYPE":0,"CLASSIFICATION_TYPE":"U","NORAD_CAT_ID":64804,"ELEMENT_SET_NO":999,"REV_AT_EPOCH":3650,"BSTAR":0.00017584,"MEAN_MOTION_DOT":2.006e-5,"MEAN_MOTION_DDOT":0}]
